{
  "type": "FeatureCollection",
  "features": [
    {
      "type": "Feature",
      "properties": {
        "norad_id": 66816,
        "name": "STARLINK-36098",
        "group": "last-30-days",
        "lat": 1.0890907662532339,
        "lon": -103.25062137484606,
        "alt_km": 305.18948443387035,
        "timestamp": "2025-12-12T03:50:51.178303+00:00",
        "meta_object_name": "STARLINK-36098",
        "meta_object_id": "2025-278AB",
        "meta_epoch": "2025-12-11T14:00:01.999872",
        "meta_mean_motion": 15.90476542,
        "meta_eccentricity": 0.00019673,
        "meta_inclination": 42.9981,
        "meta_ra_of_asc_node": 259.1579,
        "meta_arg_of_pericenter": 261.2604,
        "meta_mean_anomaly": 34.4862,
        "meta_ephemeris_type": 0,
        "meta_classification_type": "U",
        "meta_norad_cat_id": 66816,
        "meta_element_set_no": 999,
        "meta_rev_at_epoch": 261,
        "meta_bstar": -0.0045201872,
        "meta_mean_motion_dot": -0.01277139,
        "meta_mean_motion_ddot": 0,
        "tle_line1": "1 66816U 25278AB  25345.58335648 -.01277139  00000+0 -45202-2 0  9998",
        "tle_line2": "2 66816  42.9981 259.1579 0001967 261.2604  34.4862 15.90476542  2613"
      },
      "geometry": {
        "type": "Point",
        "coordinates": [
          -103.25062137484606,
          1.0890907662532339
        ]
      }
    },
    {
      "type": "Feature",
      "properties": {
        "norad_id": 66817,
        "name": "STARLINK-35995",
        "group": "last-30-days",
        "lat": 4.601866945536806,
        "lon": -99.47722133420979,
        "alt_km": 304.78376529279285,
        "timestamp": "2025-12-12T03:50:51.178317+00:00",
        "meta_object_name": "STARLINK-35995",
        "meta_object_id": "2025-278AC",
        "meta_epoch": "2025-12-11T14:00:01.999872",
        "meta_mean_motion": 15.90527005,
        "meta_eccentricity": 0.00019534,
        "meta_inclination": 42.9981,
        "meta_ra_of_asc_node": 259.1449,
        "meta_arg_of_pericenter": 259.984,
        "meta_mean_anomaly": 40.8311,
        "meta_ephemeris_type": 0,
        "meta_classification_type": "U",
        "meta_norad_cat_id": 66817,
        "meta_element_set_no": 999,
        "meta_rev_at_epoch": 277,
        "meta_bstar": -0.0045439658,
        "meta_mean_motion_dot": -0.01286055,
        "meta_mean_motion_ddot": 0,
        "tle_line1": "1 66817U 25278AC  25345.58335648 -.01286055  00000+0 -45440-2 0  9990",
        "tle_line2": "2 66817  42.9981 259.1449 0001953 259.9840  40.8311 15.90527005  2779"
      },
      "geometry": {
        "type": "Point",
        "coordinates": [
          -99.47722133420979,
          4.601866945536806
        ]
      }
    },
    {
      "type": "Feature",
      "properties": {
        "norad_id": 66818,
        "name": "STARLINK-35994",
        "group": "last-30-days",
        "lat": 3.060006647545294,
        "lon": -101.137966313696,
        "alt_km": 304.97563493720554,
        "timestamp": "2025-12-12T03:50:51.178328+00:00",
        "meta_object_name": "STARLINK-35994",
        "meta_object_id": "2025-278AD",
        "meta_epoch": "2025-12-11T14:00:01.999872",
        "meta_mean_motion": 15.90498801,
        "meta_eccentricity": 0.00019197,
        "meta_inclination": 42.9982,
        "meta_ra_of_asc_node": 259.1507,
        "meta_arg_of_pericenter": 260.4594,
        "meta_mean_anomaly": 38.1402,
        "meta_ephemeris_type": 0,
        "meta_classification_type": "U",
        "meta_norad_cat_id": 66818,
        "meta_element_set_no": 999,
        "meta_rev_at_epoch": 277,
        "meta_bstar": -0.0045304587,
        "meta_mean_motion_dot": -0.01280983,
        "meta_mean_motion_ddot": 0,
        "tle_line1": "1 66818U 25278AD  25345.58335648 -.01280983  00000+0 -45305-2 0  9995",
        "tle_line2": "2 66818  42.9982 259.1507 0001919 260.4594  38.1402 15.90498801  2773"
      },
      "geometry": {
        "type": "Point",
        "coordinates": [
          -101.137966313696,
          3.060006647545294
        ]
      }
    },
    {
      "type": "Feature",
      "properties": {
        "norad_id": 66819,
        "name": "STARLINK-35989",
        "group": "last-30-days",
        "lat": 6.153253516407384,
        "lon": -97.79442738485228,
        "alt_km": 304.62187480200464,
        "timestamp": "2025-12-12T03:50:51.178339+00:00",
        "meta_object_name": "STARLINK-35989",
        "meta_object_id": "2025-278AE",
        "meta_epoch": "2025-12-11T14:00:01.999872",
        "meta_mean_motion": 15.90559391,
        "meta_eccentricity": 0.00020047,
        "meta_inclination": 42.9983,
        "meta_ra_of_asc_node": 259.1393,
        "meta_arg_of_pericenter": 258.672,
        "meta_mean_anomaly": 44.3756,
        "meta_ephemeris_type": 0,
        "meta_classification_type": "U",
        "meta_norad_cat_id": 66819,
        "meta_element_set_no": 999,
        "meta_rev_at_epoch": 277,
        "meta_bstar": -0.0045729568,
        "meta_mean_motion_dot": -0.01295275,
        "meta_mean_motion_ddot": 0,
        "tle_line1": "1 66819U 25278AE  25345.58335648 -.01295275  00000+0 -45730-2 0  9998",
        "tle_line2": "2 66819  42.9983 259.1393 0002004 258.6720  44.3756 15.90559391  2777"
      },
      "geometry": {
        "type": "Point",
        "coordinates": [
          -97.79442738485228,
          6.153253516407384
        ]
      }
    },
    {
      "type": "Feature",
      "properties": {
        "norad_id": 66820,
        "name": "KOMPSAT-7",
        "group": "last-30-days",
        "lat": 77.74140090432014,
        "lon": 150.1966338177768,
        "alt_km": 566.689813078593,
        "timestamp": "2025-12-12T03:50:51.178355+00:00",
        "meta_object_name": "KOMPSAT-7",
        "meta_object_id": "2025-279A",
        "meta_epoch": "2025-12-11T00:09:46.708704",
        "meta_mean_motion": 14.98662486,
        "meta_eccentricity": 0.00081984,
        "meta_inclination": 97.6407,
        "meta_ra_of_asc_node": 290.9079,
        "meta_arg_of_pericenter": 224.9199,
        "meta_mean_anomaly": 135.1362,
        "meta_ephemeris_type": 0,
        "meta_classification_type": "U",
        "meta_norad_cat_id": 66820,
        "meta_element_set_no": 999,
        "meta_rev_at_epoch": 139,
        "meta_bstar": 0.00036088548,
        "meta_mean_motion_dot": 4.28e-05,
        "meta_mean_motion_ddot": 0,
        "tle_line1": "1 66820U 25279A   25345.00679061  .00004280  00000+0  36089-3 0  9997",
        "tle_line2": "2 66820  97.6407 290.9079 0008198 224.9199 135.1362 14.98662486  1393"
      },
      "geometry": {
        "type": "Point",
        "coordinates": [
          150.1966338177768,
          77.74140090432014
        ]
      }
    },
    {
      "type": "Feature",
      "properties": {
        "norad_id": 66821,
        "name": "STARLINK-35966",
        "group": "last-30-days",
        "lat": -47.66594840640676,
        "lon": 176.92603657495675,
        "alt_km": 328.100514476243,
        "timestamp": "2025-12-12T03:50:51.178366+00:00",
        "meta_object_name": "STARLINK-35966",
        "meta_object_id": "2025-280A",
        "meta_epoch": "2025-12-10T16:00:01.999584",
        "meta_mean_motion": 15.87163122,
        "meta_eccentricity": 0.00039131,
        "meta_inclination": 69.9939,
        "meta_ra_of_asc_node": 204.7907,
        "meta_arg_of_pericenter": 271.1294,
        "meta_mean_anomaly": 158.5043,
        "meta_ephemeris_type": 0,
        "meta_classification_type": "U",
        "meta_norad_cat_id": 66821,
        "meta_element_set_no": 999,
        "meta_rev_at_epoch": 256,
        "meta_bstar": -0.0067612749,
        "meta_mean_motion_dot": -0.01557078,
        "meta_mean_motion_ddot": 0,
        "tle_line1": "1 66821U 25280A   25344.66668981 -.01557078  00000+0 -67613-2 0  9997",
        "tle_line2": "2 66821  69.9939 204.7907 0003913 271.1294 158.5043 15.87163122  2566"
      },
      "geometry": {
        "type": "Point",
        "coordinates": [
          176.92603657495675,
          -47.66594840640676
        ]
      }
    },
    {
      "type": "Feature",
      "properties": {
        "norad_id": 66822,
        "name": "STARLINK-35958",
        "group": "last-30-days",
        "lat": -46.027105121495964,
        "lon": 178.31004487958353,
        "alt_km": 327.973054060315,
        "timestamp": "2025-12-12T03:50:51.178376+00:00",
        "meta_object_name": "STARLINK-35958",
        "meta_object_id": "2025-280B",
        "meta_epoch": "2025-12-10T16:00:01.999584",
        "meta_mean_motion": 15.87203288,
        "meta_eccentricity": 0.00039141,
        "meta_inclination": 69.9939,
        "meta_ra_of_asc_node": 204.789,
        "meta_arg_of_pericenter": 271.5252,
        "meta_mean_anomaly": 159.7958,
        "meta_ephemeris_type": 0,
        "meta_classification_type": "U",
        "meta_norad_cat_id": 66822,
        "meta_element_set_no": 999,
        "meta_rev_at_epoch": 256,
        "meta_bstar": -0.006752443,
        "meta_mean_motion_dot": -0.0155802,
        "meta_mean_motion_ddot": 0,
        "tle_line1": "1 66822U 25280B   25344.66668981 -.01558020  00000+0 -67524-2 0  9997",
        "tle_line2": "2 66822  69.9939 204.7890 0003914 271.5252 159.7958 15.87203288  2563"
      },
      "geometry": {
        "type": "Point",
        "coordinates": [
          178.31004487958353,
          -46.027105121495964
        ]
      }
    }
  ]
}